[{"OBJECT_NAME":"STARLINK-31858","OBJECT_ID":"2024-084E","EPOCH":"2026-03-09T06:43:13.000512","MEAN_MOTION":15.2759031,"ECCENTRICITY":0.0001278,"INCLINATION":43.0009,"RA_OF_ASC_NODE":43.8412,"ARG_OF_PERICENTER":268.048,"MEAN_ANOMALY":92.0226,"EPHEMERIS_TYPE":0,"CLASSIFICATION_TYPE":"U","NORAD_CAT_ID":59658,"ELEMENT_SET_NO":999,"REV_AT_EPOCH":10431,"BSTAR":1.6448491e-5,"MEAN_MOTION_DOT":1.91e-6,"MEAN_MOTION_DDOT":0},{"OBJECT_NAME":"OBJECT D","OBJECT_ID":"2025-197D","EPOCH":"2026-03-09T23:30:56.303712","MEAN_MOTION":15.25287442,"ECCENTRICITY":0.00144425,"INCLINATION":97.4091,"RA_OF_ASC_NODE":257.3677,"ARG_OF_PERICENTER":3.398,"MEAN_ANOMALY":356.7353,"EPHEMERIS_TYPE":0,"CLASSIFICATION_TYPE":"U","NORAD_CAT_ID":65491,"ELEMENT_SET_NO":999,"REV_AT_EPOCH":2822,"BSTAR":0.00037200129,"MEAN_MOTION_DOT":9.321e-5,"MEAN_MOTION_DDOT":0}]
